[{"OBJECT_NAME":"STARLINK-5068","OBJECT_ID":"2023-014AJ","EPOCH":"2026-03-09T10:43:04.439424","MEAN_MOTION":14.98327616,"ECCENTRICITY":0.00033795,"INCLINATION":69.9991,"RA_OF_ASC_NODE":85.157,"ARG_OF_PERICENTER":269.503,"MEAN_ANOMALY":90.5742,"EPHEMERIS_TYPE":0,"CLASSIFICATION_TYPE":"U","NORAD_CAT_ID":55423,"ELEMENT_SET_NO":999,"REV_AT_EPOCH":17152,"BSTAR":-3.3395787e-5,"MEAN_MOTION_DOT":-4.91e-6,"MEAN_MOTION_DDOT":0},{"OBJECT_NAME":"FENGYUN 1C DEB","OBJECT_ID":"1999-025AKL","EPOCH":"2026-03-09T14:47:46.011264","MEAN_MOTION":14.88806868,"ECCENTRICITY":0.0088849,"INCLINATION":98.9015,"RA_OF_ASC_NODE":300.2677,"ARG_OF_PERICENTER":245.5096,"MEAN_ANOMALY":169.9787,"EPHEMERIS_TYPE":0,"CLASSIFICATION_TYPE":"U","NORAD_CAT_ID":30546,"ELEMENT_SET_NO":999,"REV_AT_EPOCH":1749,"BSTAR":0.00087367,"MEAN_MOTION_DOT":8.737e-5,"MEAN_MOTION_DDOT":0}]
